YAM-7                   
1 60504U 24149AN  26068.71799904  .00009009  00000+0  30984-3 0  9997
2 60504  97.3828 149.4631 0001973 296.5121  63.5918 15.30304554 86835
STARLINK-35695          
1 66558U 25268B   26068.15483160  .00032128  00000+0  11712-2 0  9992
2 66558  43.0083 350.4619 0004164 256.8745 103.1642 15.27597305 17874
